[{"OBJECT_NAME":"STARLINK-36982","OBJECT_ID":"2026-055S","EPOCH":"2026-04-09T17:37:44.232672","MEAN_MOTION":15.80920034,"ECCENTRICITY":0.000128,"INCLINATION":53.1579,"RA_OF_ASC_NODE":181.5715,"ARG_OF_PERICENTER":70.9613,"MEAN_ANOMALY":289.1548,"EPHEMERIS_TYPE":0,"CLASSIFICATION_TYPE":"U","NORAD_CAT_ID":68278,"ELEMENT_SET_NO":999,"REV_AT_EPOCH":459,"BSTAR":0.00074539,"MEAN_MOTION_DOT":0.00149312,"MEAN_MOTION_DDOT":0},{"OBJECT_NAME":"STARLINK-36934","OBJECT_ID":"2026-055T","EPOCH":"2026-04-09T17:38:48.670656","MEAN_MOTION":15.80978732,"ECCENTRICITY":8.23e-5,"INCLINATION":53.1579,"RA_OF_ASC_NODE":181.5773,"ARG_OF_PERICENTER":73.2938,"MEAN_ANOMALY":286.8175,"EPHEMERIS_TYPE":0,"CLASSIFICATION_TYPE":"U","NORAD_CAT_ID":68279,"ELEMENT_SET_NO":999,"REV_AT_EPOCH":459,"BSTAR":0.0013542,"MEAN_MOTION_DOT":0.0027667,"MEAN_MOTION_DDOT":0},{"OBJECT_NAME":"STARLINK-37070","OBJECT_ID":"2026-055U","EPOCH":"2026-04-09T17:35:34.654272","MEAN_MOTION":15.80911732,"ECCENTRICITY":0.0001302,"INCLINATION":53.1579,"RA_OF_ASC_NODE":181.5612,"ARG_OF_PERICENTER":76.4502,"MEAN_ANOMALY":283.6665,"EPHEMERIS_TYPE":0,"CLASSIFICATION_TYPE":"U","NORAD_CAT_ID":68280,"ELEMENT_SET_NO":999,"REV_AT_EPOCH":459,"BSTAR":0.00068263,"MEAN_MOTION_DOT":0.00136423,"MEAN_MOTION_DDOT":0},{"OBJECT_NAME":"STARLINK-37134","OBJECT_ID":"2026-055V","EPOCH":"2026-04-09T17:33:24.575616","MEAN_MOTION":15.8096015,"ECCENTRICITY":7.12e-5,"INCLINATION":53.1576,"RA_OF_ASC_NODE":181.5501,"ARG_OF_PERICENTER":80.1371,"MEAN_ANOMALY":279.9732,"EPHEMERIS_TYPE":0,"CLASSIFICATION_TYPE":"U","NORAD_CAT_ID":68281,"ELEMENT_SET_NO":999,"REV_AT_EPOCH":459,"BSTAR":0.0010903,"MEAN_MOTION_DOT":0.00220967,"MEAN_MOTION_DDOT":0},{"OBJECT_NAME":"STARLINK-37160","OBJECT_ID":"2026-055W","EPOCH":"2026-04-09T17:34:29.827488","MEAN_MOTION":15.80895784,"ECCENTRICITY":0.0001241,"INCLINATION":53.1578,"RA_OF_ASC_NODE":181.5558,"ARG_OF_PERICENTER":84.4501,"MEAN_ANOMALY":275.6663,"EPHEMERIS_TYPE":0,"CLASSIFICATION_TYPE":"U","NORAD_CAT_ID":68282,"ELEMENT_SET_NO":999,"REV_AT_EPOCH":459,"BSTAR":0.00049783,"MEAN_MOTION_DOT":0.00098792,"MEAN_MOTION_DDOT":0},{"OBJECT_NAME":"STARLINK-37124","OBJECT_ID":"2026-055X","EPOCH":"2026-04-09T17:32:19.652064","MEAN_MOTION":15.8083762,"ECCENTRICITY":0.0001358,"INCLINATION":53.1578,"RA_OF_ASC_NODE":181.5462,"ARG_OF_PERICENTER":78.9708,"MEAN_ANOMALY":281.1467,"EPHEMERIS_TYPE":0,"CLASSIFICATION_TYPE":"U","NORAD_CAT_ID":68283,"ELEMENT_SET_NO":999,"REV_AT_EPOCH":459,"BSTAR":0.00025934,"MEAN_MOTION_DOT":0.00050703,"MEAN_MOTION_DDOT":0},{"OBJECT_NAME":"STARLINK-37159","OBJECT_ID":"2026-055Y","EPOCH":"2026-04-09T17:31:14.600640","MEAN_MOTION":15.80882864,"ECCENTRICITY":9.95e-5,"INCLINATION":53.1576,"RA_OF_ASC_NODE":181.5412,"ARG_OF_PERICENTER":122.2751,"MEAN_ANOMALY":237.8368,"EPHEMERIS_TYPE":0,"CLASSIFICATION_TYPE":"U","NORAD_CAT_ID":68284,"ELEMENT_SET_NO":999,"REV_AT_EPOCH":459,"BSTAR":0.00063084,"MEAN_MOTION_DOT":0.00125693,"MEAN_MOTION_DDOT":0},{"OBJECT_NAME":"STARLINK-36725","OBJECT_ID":"2026-055Z","EPOCH":"2026-04-09T17:30:11.813760","MEAN_MOTION":15.80945692,"ECCENTRICITY":3.42e-5,"INCLINATION":53.1576,"RA_OF_ASC_NODE":181.5354,"ARG_OF_PERICENTER":93.6484,"MEAN_ANOMALY":266.4578,"EPHEMERIS_TYPE":0,"CLASSIFICATION_TYPE":"U","NORAD_CAT_ID":68285,"ELEMENT_SET_NO":999,"REV_AT_EPOCH":459,"BSTAR":0.0013889,"MEAN_MOTION_DOT":0.00283574,"MEAN_MOTION_DDOT":0},{"OBJECT_NAME":"STARLINK-36998","OBJECT_ID":"2026-055AA","EPOCH":"2026-04-09T17:28:00.693120","MEAN_MOTION":15.80950167,"ECCENTRICITY":0.0001276,"INCLINATION":53.1576,"RA_OF_ASC_NODE":181.527,"ARG_OF_PERICENTER":48.0772,"MEAN_ANOMALY":312.036,"EPHEMERIS_TYPE":0,"CLASSIFICATION_TYPE":"U","NORAD_CAT_ID":68286,"ELEMENT_SET_NO":999,"REV_AT_EPOCH":459,"BSTAR":0.0011131,"MEAN_MOTION_DOT":0.00225631,"MEAN_MOTION_DDOT":0},{"OBJECT_NAME":"STARLINK-37165","OBJECT_ID":"2026-055AB","EPOCH":"2026-04-09T17:26:55.922496","MEAN_MOTION":15.8094364,"ECCENTRICITY":8.79e-5,"INCLINATION":53.1576,"RA_OF_ASC_NODE":181.5204,"ARG_OF_PERICENTER":90.8334,"MEAN_ANOMALY":269.2789,"EPHEMERIS_TYPE":0,"CLASSIFICATION_TYPE":"U","NORAD_CAT_ID":68287,"ELEMENT_SET_NO":999,"REV_AT_EPOCH":459,"BSTAR":0.0010439,"MEAN_MOTION_DOT":0.00211137,"MEAN_MOTION_DDOT":0},{"OBJECT_NAME":"STARLINK-37016","OBJECT_ID":"2026-055AC","EPOCH":"2026-04-09T17:29:05.318592","MEAN_MOTION":15.80963341,"ECCENTRICITY":9.33e-5,"INCLINATION":53.1576,"RA_OF_ASC_NODE":181.5309,"ARG_OF_PERICENTER":46.4324,"MEAN_ANOMALY":313.6776,"EPHEMERIS_TYPE":0,"CLASSIFICATION_TYPE":"U","NORAD_CAT_ID":68288,"ELEMENT_SET_NO":999,"REV_AT_EPOCH":459,"BSTAR":0.0011831,"MEAN_MOTION_DOT":0.00240416,"MEAN_MOTION_DDOT":0},{"OBJECT_NAME":"STARLINK-37010","OBJECT_ID":"2026-055AD","EPOCH":"2026-04-09T17:25:50.852928","MEAN_MOTION":15.80956064,"ECCENTRICITY":8.26e-5,"INCLINATION":53.1575,"RA_OF_ASC_NODE":181.5152,"ARG_OF_PERICENTER":115.3648,"MEAN_ANOMALY":244.746,"EPHEMERIS_TYPE":0,"CLASSIFICATION_TYPE":"U","NORAD_CAT_ID":68289,"ELEMENT_SET_NO":999,"REV_AT_EPOCH":459,"BSTAR":0.0010639,"MEAN_MOTION_DOT":0.00215417,"MEAN_MOTION_DDOT":0},{"OBJECT_NAME":"STARLINK-37151","OBJECT_ID":"2026-055AE","EPOCH":"2026-04-09T17:24:46.467648","MEAN_MOTION":15.8091897,"ECCENTRICITY":0.0001211,"INCLINATION":53.1576,"RA_OF_ASC_NODE":181.51,"ARG_OF_PERICENTER":108.0212,"MEAN_ANOMALY":252.0942,"EPHEMERIS_TYPE":0,"CLASSIFICATION_TYPE":"U","NORAD_CAT_ID":68290,"ELEMENT_SET_NO":999,"REV_AT_EPOCH":459,"BSTAR":0.00073337,"MEAN_MOTION_DOT":0.00146841,"MEAN_MOTION_DDOT":0},{"OBJECT_NAME":"STRIX-6","OBJECT_ID":"2026-056A","EPOCH":"2026-04-09T18:33:36.757440","MEAN_MOTION":14.99741636,"ECCENTRICITY":0.0016418,"INCLINATION":50.2837,"RA_OF_ASC_NODE":313.0827,"ARG_OF_PERICENTER":341.6746,"MEAN_ANOMALY":18.3609,"EPHEMERIS_TYPE":0,"CLASSIFICATION_TYPE":"U","NORAD_CAT_ID":68291,"ELEMENT_SET_NO":999,"REV_AT_EPOCH":300,"BSTAR":0.00027548,"MEAN_MOTION_DOT":3.186e-5,"MEAN_MOTION_DDOT":0},{"OBJECT_NAME":"STARLINK-37107","OBJECT_ID":"2026-057A","EPOCH":"2026-04-09T19:56:24.226944","MEAN_MOTION":15.80868483,"ECCENTRICITY":0.0001377,"INCLINATION":97.284,"RA_OF_ASC_NODE":223.7749,"ARG_OF_PERICENTER":126.2032,"MEAN_ANOMALY":233.9363,"EPHEMERIS_TYPE":0,"CLASSIFICATION_TYPE":"U","NORAD_CAT_ID":68294,"ELEMENT_SET_NO":999,"REV_AT_EPOCH":318,"BSTAR":0.00081393,"MEAN_MOTION_DOT":0.00159017,"MEAN_MOTION_DDOT":0},{"OBJECT_NAME":"STARLINK-37147","OBJECT_ID":"2026-057B","EPOCH":"2026-04-09T19:55:19.756992","MEAN_MOTION":15.80846138,"ECCENTRICITY":0.000145,"INCLINATION":97.2841,"RA_OF_ASC_NODE":223.7751,"ARG_OF_PERICENTER":71.1267,"MEAN_ANOMALY":289.0158,"EPHEMERIS_TYPE":0,"CLASSIFICATION_TYPE":"U","NORAD_CAT_ID":68295,"ELEMENT_SET_NO":999,"REV_AT_EPOCH":318,"BSTAR":0.00080809,"MEAN_MOTION_DOT":0.00157691,"MEAN_MOTION_DDOT":0}]
