STARLINK-36982          
1 68278U 26055S   26099.73453973  .00149312  00000+0  74539-3 0  9996
2 68278  53.1579 181.5715 0001280  70.9613 289.1548 15.80920034  4595
STARLINK-36934          
1 68279U 26055T   26099.73528554  .00276670  00000+0  13542-2 0  9999
2 68279  53.1579 181.5773 0000823  73.2938 286.8175 15.80978732  4596
STARLINK-37070          
1 68280U 26055U   26099.73303998  .00136423  00000+0  68263-3 0  9996
2 68280  53.1579 181.5612 0001302  76.4502 283.6665 15.80911732  4591
STARLINK-37134          
1 68281U 26055V   26099.73153444  .00220967  00000+0  10903-2 0  9990
2 68281  53.1576 181.5501 0000712  80.1371 279.9732 15.80960150  4597
STARLINK-37160          
1 68282U 26055W   26099.73228967  .00098792  00000+0  49783-3 0  9992
2 68282  53.1578 181.5558 0001241  84.4501 275.6663 15.80895784  4598
STARLINK-37124          
1 68283U 26055X   26099.73078301  .00050703  00000+0  25934-3 0  9990
2 68283  53.1578 181.5462 0001358  78.9708 281.1467 15.80837620  4598
STARLINK-37159          
1 68284U 26055Y   26099.73003010  .00125693  00000+0  63084-3 0  9995
2 68284  53.1576 181.5412 0000995 122.2751 237.8368 15.80882864  4597
STARLINK-36725          
1 68285U 26055Z   26099.72930340  .00283574  00000+0  13889-2 0  9990
2 68285  53.1576 181.5354 0000342  93.6484 266.4578 15.80945692  4593
STARLINK-36998          
1 68286U 26055AA  26099.72778580  .00225631  00000+0  11131-2 0  9995
2 68286  53.1576 181.5270 0001276  48.0772 312.0360 15.80950167  4592
STARLINK-37165          
1 68287U 26055AB  26099.72703614  .00211137  00000+0  10439-2 0  9998
2 68287  53.1576 181.5204 0000879  90.8334 269.2789 15.80943640  4593
STARLINK-37016          
1 68288U 26055AC  26099.72853378  .00240416  00000+0  11831-2 0  9991
2 68288  53.1576 181.5309 0000933  46.4324 313.6776 15.80963341  4597
STARLINK-37010          
1 68289U 26055AD  26099.72628302  .00215417  00000+0  10639-2 0  9997
2 68289  53.1575 181.5152 0000826 115.3648 244.7460 15.80956064  4597
STARLINK-37151          
1 68290U 26055AE  26099.72553782  .00146841  00000+0  73337-3 0  9997
2 68290  53.1576 181.5100 0001211 108.0212 252.0942 15.80918970  4599
STRIX-6                 
1 68291U 26056A   26099.77334210  .00003186  00000+0  27548-3 0  9994
2 68291  50.2837 313.0827 0016418 341.6746  18.3609 14.99741636  3008
STARLINK-37107          
1 68294U 26057A   26099.83083596  .00159017  00000+0  81393-3 0  9996
2 68294  97.2840 223.7749 0001377 126.2032 233.9363 15.80868483  3181
STARLINK-37147          
1 68295U 26057B   26099.83008978  .00157691  00000+0  80809-3 0  9995
2 68295  97.2841 223.7751 0001450  71.1267 289.0158 15.80846138  3183
